[{"OBJECT_NAME":"HST","OBJECT_ID":"1990-037B","EPOCH":"2026-03-09T03:50:04.164288","MEAN_MOTION":15.29473555,"ECCENTRICITY":0.00018372,"INCLINATION":28.4717,"RA_OF_ASC_NODE":43.6133,"ARG_OF_PERICENTER":120.9992,"MEAN_ANOMALY":239.0785,"EPHEMERIS_TYPE":0,"CLASSIFICATION_TYPE":"U","NORAD_CAT_ID":20580,"ELEMENT_SET_NO":999,"REV_AT_EPOCH":77323,"BSTAR":0.0003002261,"MEAN_MOTION_DOT":9.063e-5,"MEAN_MOTION_DDOT":0},{"OBJECT_NAME":"STARLINK-34657","OBJECT_ID":"2025-147W","EPOCH":"2026-03-09T21:56:14.764992","MEAN_MOTION":15.30205165,"ECCENTRICITY":0.00014083,"INCLINATION":53.157,"RA_OF_ASC_NODE":241.8794,"ARG_OF_PERICENTER":70.1383,"MEAN_ANOMALY":289.9769,"EPHEMERIS_TYPE":0,"CLASSIFICATION_TYPE":"U","NORAD_CAT_ID":64775,"ELEMENT_SET_NO":999,"REV_AT_EPOCH":3878,"BSTAR":0.0010259483,"MEAN_MOTION_DOT":0.00030155,"MEAN_MOTION_DDOT":0}]
